{
  "links" : {
    "next" : "https://api.nasa.gov/neo/rest/v1/feed?start_date=2002-01-16&end_date=2002-01-16&detailed=true&api_key=t0TVs3DtDT2H8Oy2Zy8m2eVrNsAVKAexjcZXUckd",
    "prev" : "https://api.nasa.gov/neo/rest/v1/feed?start_date=2002-01-14&end_date=2002-01-14&detailed=true&api_key=t0TVs3DtDT2H8Oy2Zy8m2eVrNsAVKAexjcZXUckd",
    "self" : "https://api.nasa.gov/neo/rest/v1/feed?start_date=2002-01-15&end_date=2002-01-15&detailed=true&api_key=t0TVs3DtDT2H8Oy2Zy8m2eVrNsAVKAexjcZXUckd"
  },
  "element_count" : 2,
  "near_earth_objects" : {
    "2002-01-15" : [ {
      "links" : {
        "self" : "https://api.nasa.gov/neo/rest/v1/neo/2373579?api_key=t0TVs3DtDT2H8Oy2Zy8m2eVrNsAVKAexjcZXUckd"
      },
      "neo_reference_id" : "2373579",
      "name" : "373579 (2002 AW11)",
      "nasa_jpl_url" : "http://ssd.jpl.nasa.gov/sbdb.cgi?sstr=2373579",
      "absolute_magnitude_h" : 18.7,
      "estimated_diameter" : {
        "kilometers" : {
          "estimated_diameter_min" : 0.4836764882,
          "estimated_diameter_max" : 1.0815335068
        },
        "meters" : {
          "estimated_diameter_min" : 483.6764882185,
          "estimated_diameter_max" : 1081.533506775
        },
        "miles" : {
          "estimated_diameter_min" : 0.3005425432,
          "estimated_diameter_max" : 0.6720335566
        },
        "feet" : {
          "estimated_diameter_min" : 1586.8651696069,
          "estimated_diameter_max" : 3548.3383903678
        }
      },
      "is_potentially_hazardous_asteroid" : false,
      "close_approach_data" : [ {
        "close_approach_date" : "2002-01-15",
        "epoch_date_close_approach" : 1011081600000,
        "relative_velocity" : {
          "kilometers_per_second" : "19.6746328362",
          "kilometers_per_hour" : "70828.678210293",
          "miles_per_hour" : "44010.186191279"
        },
        "miss_distance" : {
          "astronomical" : "0.4169373326",
          "lunar" : "162.1886138916",
          "kilometers" : "62372936",
          "miles" : "38756744"
        },
        "orbiting_body" : "Earth"
      } ],
      "orbital_data" : {
        "orbit_id" : "30",
        "orbit_determination_date" : "2017-04-06 09:22:28",
        "orbit_uncertainty" : "0",
        "minimum_orbit_intersection" : ".179329",
        "jupiter_tisserand_invariant" : "4.541",
        "epoch_osculation" : "2458000.5",
        "eccentricity" : ".3304795737153092",
        "semi_major_axis" : "1.446885289617456",
        "inclination" : "18.33017806794783",
        "ascending_node_longitude" : "95.56844410193989",
        "orbital_period" : "635.6961463480669",
        "perihelion_distance" : ".9687192558897277",
        "perihelion_argument" : "91.13988453869833",
        "aphelion_distance" : "1.925051323345185",
        "perihelion_time" : "2458056.345765905461",
        "mean_anomaly" : "328.37407959532",
        "mean_motion" : ".5663082937785922",
        "equinox" : "J2000"
      }
    }, {
      "links" : {
        "self" : "https://api.nasa.gov/neo/rest/v1/neo/3444300?api_key=t0TVs3DtDT2H8Oy2Zy8m2eVrNsAVKAexjcZXUckd"
      },
      "neo_reference_id" : "3444300",
      "name" : "(2009 BG)",
      "nasa_jpl_url" : "http://ssd.jpl.nasa.gov/sbdb.cgi?sstr=3444300",
      "absolute_magnitude_h" : 25.5,
      "estimated_diameter" : {
        "kilometers" : {
          "estimated_diameter_min" : 0.0211132445,
          "estimated_diameter_max" : 0.0472106499
        },
        "meters" : {
          "estimated_diameter_min" : 21.113244479,
          "estimated_diameter_max" : 47.2106498806
        },
        "miles" : {
          "estimated_diameter_min" : 0.0131191578,
          "estimated_diameter_max" : 0.0293353287
        },
        "feet" : {
          "estimated_diameter_min" : 69.2691770164,
          "estimated_diameter_max" : 154.8905885541
        }
      },
      "is_potentially_hazardous_asteroid" : false,
      "close_approach_data" : [ {
        "close_approach_date" : "2002-01-15",
        "epoch_date_close_approach" : 1011081600000,
        "relative_velocity" : {
          "kilometers_per_second" : "8.0446669561",
          "kilometers_per_hour" : "28960.8010419763",
          "miles_per_hour" : "17995.1155141102"
        },
        "miss_distance" : {
          "astronomical" : "0.0154032037",
          "lunar" : "5.9918460846",
          "kilometers" : "2304286.5",
          "miles" : "1431817.25"
        },
        "orbiting_body" : "Earth"
      } ],
      "orbital_data" : {
        "orbit_id" : "15",
        "orbit_determination_date" : "2017-04-06 09:01:39",
        "orbit_uncertainty" : "7",
        "minimum_orbit_intersection" : ".00766483",
        "jupiter_tisserand_invariant" : "5.590",
        "epoch_osculation" : "2458000.5",
        "eccentricity" : ".2730118941597915",
        "semi_major_axis" : "1.105453121758803",
        "inclination" : "5.557784937909962",
        "ascending_node_longitude" : "300.0261199739962",
        "orbital_period" : "424.530524801116",
        "perihelion_distance" : ".8036512710825774",
        "perihelion_argument" : "93.16769194940622",
        "aphelion_distance" : "1.407254972435028",
        "perihelion_time" : "2458181.076343201594",
        "mean_anomaly" : "206.8720627732748",
        "mean_motion" : ".8479955597271899",
        "equinox" : "J2000"
      }
    } ]
  }
}